KUIPER-00276            
1 67794U 26030AG  26062.42334534  .00035128  00000+0  11418-2 0  9993
2 67794  51.8811 249.8099 0016905  51.2223 309.0269 15.31447089  4124
KUIPER-00279            
1 67795U 26030AH  26062.51905359  .00024714  00000+0  72343-3 0  9997
2 67795  51.8791 248.9560 0006223  31.5800 328.5559 15.35079419  4141
CREW DRAGON 12          
1 67796U 26031A   26062.44686659  .00009386  00000+0  18180-3 0  9997
2 67796  51.6317 103.2200 0008211 152.5429 207.5995 15.48418100555103
STARLINK-36800          
1 67797U 26032A   26062.50001156 -.00021988  00000+0 -14686-3 0  9990
2 67797  97.2836 248.6795 0001462  86.3806  96.1725 15.75200138  3788
STARLINK-36798          
1 67798U 26032B   26062.45421845  .00370170  00000+0  18392-2 0  9991
2 67798  97.2839 248.6624 0001538  84.4341 275.7103 15.80973994  3801
STARLINK-36804          
1 67799U 26032C   26062.50001156  .00034709  00000+0  23284-3 0  9999
2 67799  97.2837 248.6838 0001610  78.2491 114.3008 15.75168786  3727
STARLINK-36354          
1 67800U 26032D   26062.50001156  .00007025  00000+0  47977-4 0  9999
2 67800  97.2844 248.7106 0001514  87.6172 166.9253 15.75166368  3785
STARLINK-36773          
1 67801U 26032E   26062.50001156  .00031832  00000+0  21357-3 0  9996
2 67801  97.2838 248.6911 0001551  85.8668 124.6780 15.75180764  3729
STARLINK-36739          
1 67802U 26032F   26062.51276440  .00243579  00000+0  12317-2 0  9996
2 67802  97.2841 248.7353 0001617  74.3739 285.7707 15.80912993  3811
STARLINK-36768          
1 67803U 26032G   26062.50001156  .00062425  00000+0  41679-3 0  9999
2 67803  97.2838 248.7051 0001557  91.1320 153.4134 15.75164329  3786
STARLINK-36792          
1 67804U 26032H   26062.50001156  .00107925  00000+0  71483-3 0  9991
2 67804  97.2839 248.6986 0001738  67.4837 162.9246 15.75205887  3722
STARLINK-36782          
1 67805U 26032J   26062.51104134  .00265522  00000+0  13391-2 0  9994
2 67805  97.2838 248.7371 0001406  80.2719 279.8708 15.80915342  3816
STARLINK-36389          
1 67806U 26032K   26062.50001156 -.00632241  00000+0 -44736-2 0  9999
2 67806  97.2841 248.7248 0001887  84.1062 210.2046 15.75623977  3785
STARLINK-36382          
1 67807U 26032L   26062.50001156 -.01869392  00000+0 -13018-1 0  9998
2 67807  97.2840 248.7292 0001599  80.7414 223.7461 15.77388698  3721
STARLINK-36811          
1 67808U 26032M   26062.50773067  .00238849  00000+0  12086-2 0  9995
2 67808  97.2834 248.7411 0001651  52.6463 307.4956 15.80911820  3811
STARLINK-36795          
1 67809U 26032N   26062.50001156  .00051449  00000+0  34393-3 0  9994
2 67809  97.2841 248.7132 0001632  82.7049 183.8333 15.75175946  3789
STARLINK-36807          
1 67810U 26032P   26062.50567167  .00168746  00000+0  86221-3 0  9991
2 67810  97.2833 248.7428 0001409  76.3312 283.8113 15.80881107  3814
