[{"OBJECT_NAME":"KUIPER-00276","OBJECT_ID":"2026-030AG","EPOCH":"2026-03-03T10:09:37.037376","MEAN_MOTION":15.31447089,"ECCENTRICITY":0.0016905,"INCLINATION":51.8811,"RA_OF_ASC_NODE":249.8099,"ARG_OF_PERICENTER":51.2223,"MEAN_ANOMALY":309.0269,"EPHEMERIS_TYPE":0,"CLASSIFICATION_TYPE":"U","NORAD_CAT_ID":67794,"ELEMENT_SET_NO":999,"REV_AT_EPOCH":412,"BSTAR":0.0011418,"MEAN_MOTION_DOT":0.00035128,"MEAN_MOTION_DDOT":0},{"OBJECT_NAME":"KUIPER-00279","OBJECT_ID":"2026-030AH","EPOCH":"2026-03-03T12:27:26.230176","MEAN_MOTION":15.35079419,"ECCENTRICITY":0.0006223,"INCLINATION":51.8791,"RA_OF_ASC_NODE":248.956,"ARG_OF_PERICENTER":31.58,"MEAN_ANOMALY":328.5559,"EPHEMERIS_TYPE":0,"CLASSIFICATION_TYPE":"U","NORAD_CAT_ID":67795,"ELEMENT_SET_NO":999,"REV_AT_EPOCH":414,"BSTAR":0.00072343,"MEAN_MOTION_DOT":0.00024714,"MEAN_MOTION_DDOT":0},{"OBJECT_NAME":"CREW DRAGON 12","OBJECT_ID":"2026-031A","EPOCH":"2026-03-03T10:43:29.273376","MEAN_MOTION":15.484181,"ECCENTRICITY":0.0008211,"INCLINATION":51.6317,"RA_OF_ASC_NODE":103.22,"ARG_OF_PERICENTER":152.5429,"MEAN_ANOMALY":207.5995,"EPHEMERIS_TYPE":0,"CLASSIFICATION_TYPE":"U","NORAD_CAT_ID":67796,"ELEMENT_SET_NO":999,"REV_AT_EPOCH":55510,"BSTAR":0.0001818,"MEAN_MOTION_DOT":9.386e-5,"MEAN_MOTION_DDOT":0},{"OBJECT_NAME":"STARLINK-36800","OBJECT_ID":"2026-032A","EPOCH":"2026-03-03T12:00:00.998784","MEAN_MOTION":15.75200138,"ECCENTRICITY":0.0001462,"INCLINATION":97.2836,"RA_OF_ASC_NODE":248.6795,"ARG_OF_PERICENTER":86.3806,"MEAN_ANOMALY":96.1725,"EPHEMERIS_TYPE":0,"CLASSIFICATION_TYPE":"U","NORAD_CAT_ID":67797,"ELEMENT_SET_NO":999,"REV_AT_EPOCH":378,"BSTAR":-0.00014686,"MEAN_MOTION_DOT":-0.00021988,"MEAN_MOTION_DDOT":0},{"OBJECT_NAME":"STARLINK-36798","OBJECT_ID":"2026-032B","EPOCH":"2026-03-03T10:54:04.474080","MEAN_MOTION":15.80973994,"ECCENTRICITY":0.0001538,"INCLINATION":97.2839,"RA_OF_ASC_NODE":248.6624,"ARG_OF_PERICENTER":84.4341,"MEAN_ANOMALY":275.7103,"EPHEMERIS_TYPE":0,"CLASSIFICATION_TYPE":"U","NORAD_CAT_ID":67798,"ELEMENT_SET_NO":999,"REV_AT_EPOCH":380,"BSTAR":0.0018392,"MEAN_MOTION_DOT":0.0037017,"MEAN_MOTION_DDOT":0},{"OBJECT_NAME":"STARLINK-36804","OBJECT_ID":"2026-032C","EPOCH":"2026-03-03T12:00:00.998784","MEAN_MOTION":15.75168786,"ECCENTRICITY":0.000161,"INCLINATION":97.2837,"RA_OF_ASC_NODE":248.6838,"ARG_OF_PERICENTER":78.2491,"MEAN_ANOMALY":114.3008,"EPHEMERIS_TYPE":0,"CLASSIFICATION_TYPE":"U","NORAD_CAT_ID":67799,"ELEMENT_SET_NO":999,"REV_AT_EPOCH":372,"BSTAR":0.00023284,"MEAN_MOTION_DOT":0.00034709,"MEAN_MOTION_DDOT":0},{"OBJECT_NAME":"STARLINK-36354","OBJECT_ID":"2026-032D","EPOCH":"2026-03-03T12:00:00.998784","MEAN_MOTION":15.75166368,"ECCENTRICITY":0.0001514,"INCLINATION":97.2844,"RA_OF_ASC_NODE":248.7106,"ARG_OF_PERICENTER":87.6172,"MEAN_ANOMALY":166.9253,"EPHEMERIS_TYPE":0,"CLASSIFICATION_TYPE":"U","NORAD_CAT_ID":67800,"ELEMENT_SET_NO":999,"REV_AT_EPOCH":378,"BSTAR":4.7977e-5,"MEAN_MOTION_DOT":7.025e-5,"MEAN_MOTION_DDOT":0},{"OBJECT_NAME":"STARLINK-36773","OBJECT_ID":"2026-032E","EPOCH":"2026-03-03T12:00:00.998784","MEAN_MOTION":15.75180764,"ECCENTRICITY":0.0001551,"INCLINATION":97.2838,"RA_OF_ASC_NODE":248.6911,"ARG_OF_PERICENTER":85.8668,"MEAN_ANOMALY":124.678,"EPHEMERIS_TYPE":0,"CLASSIFICATION_TYPE":"U","NORAD_CAT_ID":67801,"ELEMENT_SET_NO":999,"REV_AT_EPOCH":372,"BSTAR":0.00021357,"MEAN_MOTION_DOT":0.00031832,"MEAN_MOTION_DDOT":0},{"OBJECT_NAME":"STARLINK-36739","OBJECT_ID":"2026-032F","EPOCH":"2026-03-03T12:18:22.844160","MEAN_MOTION":15.80912993,"ECCENTRICITY":0.0001617,"INCLINATION":97.2841,"RA_OF_ASC_NODE":248.7353,"ARG_OF_PERICENTER":74.3739,"MEAN_ANOMALY":285.7707,"EPHEMERIS_TYPE":0,"CLASSIFICATION_TYPE":"U","NORAD_CAT_ID":67802,"ELEMENT_SET_NO":999,"REV_AT_EPOCH":381,"BSTAR":0.0012317,"MEAN_MOTION_DOT":0.00243579,"MEAN_MOTION_DDOT":0},{"OBJECT_NAME":"STARLINK-36768","OBJECT_ID":"2026-032G","EPOCH":"2026-03-03T12:00:00.998784","MEAN_MOTION":15.75164329,"ECCENTRICITY":0.0001557,"INCLINATION":97.2838,"RA_OF_ASC_NODE":248.7051,"ARG_OF_PERICENTER":91.132,"MEAN_ANOMALY":153.4134,"EPHEMERIS_TYPE":0,"CLASSIFICATION_TYPE":"U","NORAD_CAT_ID":67803,"ELEMENT_SET_NO":999,"REV_AT_EPOCH":378,"BSTAR":0.00041679,"MEAN_MOTION_DOT":0.00062425,"MEAN_MOTION_DDOT":0},{"OBJECT_NAME":"STARLINK-36792","OBJECT_ID":"2026-032H","EPOCH":"2026-03-03T12:00:00.998784","MEAN_MOTION":15.75205887,"ECCENTRICITY":0.0001738,"INCLINATION":97.2839,"RA_OF_ASC_NODE":248.6986,"ARG_OF_PERICENTER":67.4837,"MEAN_ANOMALY":162.9246,"EPHEMERIS_TYPE":0,"CLASSIFICATION_TYPE":"U","NORAD_CAT_ID":67804,"ELEMENT_SET_NO":999,"REV_AT_EPOCH":372,"BSTAR":0.00071483,"MEAN_MOTION_DOT":0.00107925,"MEAN_MOTION_DDOT":0},{"OBJECT_NAME":"STARLINK-36782","OBJECT_ID":"2026-032J","EPOCH":"2026-03-03T12:15:53.971776","MEAN_MOTION":15.80915342,"ECCENTRICITY":0.0001406,"INCLINATION":97.2838,"RA_OF_ASC_NODE":248.7371,"ARG_OF_PERICENTER":80.2719,"MEAN_ANOMALY":279.8708,"EPHEMERIS_TYPE":0,"CLASSIFICATION_TYPE":"U","NORAD_CAT_ID":67805,"ELEMENT_SET_NO":999,"REV_AT_EPOCH":381,"BSTAR":0.0013391,"MEAN_MOTION_DOT":0.00265522,"MEAN_MOTION_DDOT":0},{"OBJECT_NAME":"STARLINK-36389","OBJECT_ID":"2026-032K","EPOCH":"2026-03-03T12:00:00.998784","MEAN_MOTION":15.75623977,"ECCENTRICITY":0.0001887,"INCLINATION":97.2841,"RA_OF_ASC_NODE":248.7248,"ARG_OF_PERICENTER":84.1062,"MEAN_ANOMALY":210.2046,"EPHEMERIS_TYPE":0,"CLASSIFICATION_TYPE":"U","NORAD_CAT_ID":67806,"ELEMENT_SET_NO":999,"REV_AT_EPOCH":378,"BSTAR":-0.0044736,"MEAN_MOTION_DOT":-0.00632241,"MEAN_MOTION_DDOT":0},{"OBJECT_NAME":"STARLINK-36382","OBJECT_ID":"2026-032L","EPOCH":"2026-03-03T12:00:00.998784","MEAN_MOTION":15.77388698,"ECCENTRICITY":0.0001599,"INCLINATION":97.284,"RA_OF_ASC_NODE":248.7292,"ARG_OF_PERICENTER":80.7414,"MEAN_ANOMALY":223.7461,"EPHEMERIS_TYPE":0,"CLASSIFICATION_TYPE":"U","NORAD_CAT_ID":67807,"ELEMENT_SET_NO":999,"REV_AT_EPOCH":372,"BSTAR":-0.013018,"MEAN_MOTION_DOT":-0.01869392,"MEAN_MOTION_DDOT":0},{"OBJECT_NAME":"STARLINK-36811","OBJECT_ID":"2026-032M","EPOCH":"2026-03-03T12:11:07.929888","MEAN_MOTION":15.8091182,"ECCENTRICITY":0.0001651,"INCLINATION":97.2834,"RA_OF_ASC_NODE":248.7411,"ARG_OF_PERICENTER":52.6463,"MEAN_ANOMALY":307.4956,"EPHEMERIS_TYPE":0,"CLASSIFICATION_TYPE":"U","NORAD_CAT_ID":67808,"ELEMENT_SET_NO":999,"REV_AT_EPOCH":381,"BSTAR":0.0012086,"MEAN_MOTION_DOT":0.00238849,"MEAN_MOTION_DDOT":0},{"OBJECT_NAME":"STARLINK-36795","OBJECT_ID":"2026-032N","EPOCH":"2026-03-03T12:00:00.998784","MEAN_MOTION":15.75175946,"ECCENTRICITY":0.0001632,"INCLINATION":97.2841,"RA_OF_ASC_NODE":248.7132,"ARG_OF_PERICENTER":82.7049,"MEAN_ANOMALY":183.8333,"EPHEMERIS_TYPE":0,"CLASSIFICATION_TYPE":"U","NORAD_CAT_ID":67809,"ELEMENT_SET_NO":999,"REV_AT_EPOCH":378,"BSTAR":0.00034393,"MEAN_MOTION_DOT":0.00051449,"MEAN_MOTION_DDOT":0},{"OBJECT_NAME":"STARLINK-36807","OBJECT_ID":"2026-032P","EPOCH":"2026-03-03T12:08:10.032288","MEAN_MOTION":15.80881107,"ECCENTRICITY":0.0001409,"INCLINATION":97.2833,"RA_OF_ASC_NODE":248.7428,"ARG_OF_PERICENTER":76.3312,"MEAN_ANOMALY":283.8113,"EPHEMERIS_TYPE":0,"CLASSIFICATION_TYPE":"U","NORAD_CAT_ID":67810,"ELEMENT_SET_NO":999,"REV_AT_EPOCH":381,"BSTAR":0.00086221,"MEAN_MOTION_DOT":0.00168746,"MEAN_MOTION_DDOT":0}]
